{
  "links" : {
    "next" : "https://api.nasa.gov/neo/rest/v1/feed?start_date=2006-02-09&end_date=2006-02-09&detailed=true&api_key=t0TVs3DtDT2H8Oy2Zy8m2eVrNsAVKAexjcZXUckd",
    "prev" : "https://api.nasa.gov/neo/rest/v1/feed?start_date=2006-02-07&end_date=2006-02-07&detailed=true&api_key=t0TVs3DtDT2H8Oy2Zy8m2eVrNsAVKAexjcZXUckd",
    "self" : "https://api.nasa.gov/neo/rest/v1/feed?start_date=2006-02-08&end_date=2006-02-08&detailed=true&api_key=t0TVs3DtDT2H8Oy2Zy8m2eVrNsAVKAexjcZXUckd"
  },
  "element_count" : 9,
  "near_earth_objects" : {
    "2006-02-08" : [ {
      "links" : {
        "self" : "https://api.nasa.gov/neo/rest/v1/neo/3439560?api_key=t0TVs3DtDT2H8Oy2Zy8m2eVrNsAVKAexjcZXUckd"
      },
      "neo_reference_id" : "3439560",
      "name" : "(2008 WO2)",
      "nasa_jpl_url" : "http://ssd.jpl.nasa.gov/sbdb.cgi?sstr=3439560",
      "absolute_magnitude_h" : 29.8,
      "estimated_diameter" : {
        "kilometers" : {
          "estimated_diameter_min" : 0.002914439,
          "estimated_diameter_max" : 0.0065168838
        },
        "meters" : {
          "estimated_diameter_min" : 2.9144390453,
          "estimated_diameter_max" : 6.5168838217
        },
        "miles" : {
          "estimated_diameter_min" : 0.0018109479,
          "estimated_diameter_max" : 0.0040494026
        },
        "feet" : {
          "estimated_diameter_min" : 9.5618081975,
          "estimated_diameter_max" : 21.3808531175
        }
      },
      "is_potentially_hazardous_asteroid" : false,
      "close_approach_data" : [ {
        "close_approach_date" : "2006-02-08",
        "epoch_date_close_approach" : 1139385600000,
        "relative_velocity" : {
          "kilometers_per_second" : "5.7679750297",
          "kilometers_per_hour" : "20764.7101067741",
          "miles_per_hour" : "12902.3833438453"
        },
        "miss_distance" : {
          "astronomical" : "0.2227986808",
          "lunar" : "86.6686859131",
          "kilometers" : "33330208",
          "miles" : "20710430"
        },
        "orbiting_body" : "Earth"
      } ],
      "orbital_data" : {
        "orbit_id" : "9",
        "orbit_determination_date" : "2017-04-06 09:02:09",
        "orbit_uncertainty" : "6",
        "minimum_orbit_intersection" : ".0026476",
        "jupiter_tisserand_invariant" : "5.947",
        "epoch_osculation" : "2458000.5",
        "eccentricity" : ".1882034285614509",
        "semi_major_axis" : "1.025151858348772",
        "inclination" : "2.009993254770385",
        "ascending_node_longitude" : "238.1230125304286",
        "orbital_period" : "379.1235233817683",
        "perihelion_distance" : ".83221476381139",
        "perihelion_argument" : "85.74295306733184",
        "aphelion_distance" : "1.218088952886153",
        "perihelion_time" : "2458126.633211307291",
        "mean_anomaly" : "240.2291251527009",
        "mean_motion" : ".9495585944887114",
        "equinox" : "J2000"
      }
    }, {
      "links" : {
        "self" : "https://api.nasa.gov/neo/rest/v1/neo/3715097?api_key=t0TVs3DtDT2H8Oy2Zy8m2eVrNsAVKAexjcZXUckd"
      },
      "neo_reference_id" : "3715097",
      "name" : "(2015 FA285)",
      "nasa_jpl_url" : "http://ssd.jpl.nasa.gov/sbdb.cgi?sstr=3715097",
      "absolute_magnitude_h" : 26.4,
      "estimated_diameter" : {
        "kilometers" : {
          "estimated_diameter_min" : 0.0139493823,
          "estimated_diameter_max" : 0.0311917671
        },
        "meters" : {
          "estimated_diameter_min" : 13.9493822934,
          "estimated_diameter_max" : 31.1917670523
        },
        "miles" : {
          "estimated_diameter_min" : 0.0086677416,
          "estimated_diameter_max" : 0.0193816595
        },
        "feet" : {
          "estimated_diameter_min" : 45.7656914036,
          "estimated_diameter_max" : 102.3351970157
        }
      },
      "is_potentially_hazardous_asteroid" : false,
      "close_approach_data" : [ {
        "close_approach_date" : "2006-02-08",
        "epoch_date_close_approach" : 1139385600000,
        "relative_velocity" : {
          "kilometers_per_second" : "12.7639993168",
          "kilometers_per_hour" : "45950.3975406596",
          "miles_per_hour" : "28551.7900718615"
        },
        "miss_distance" : {
          "astronomical" : "0.1406760437",
          "lunar" : "54.7229766846",
          "kilometers" : "21044836",
          "miles" : "13076655"
        },
        "orbiting_body" : "Earth"
      } ],
      "orbital_data" : {
        "orbit_id" : "8",
        "orbit_determination_date" : "2017-04-06 08:34:39",
        "orbit_uncertainty" : "7",
        "minimum_orbit_intersection" : ".00346307",
        "jupiter_tisserand_invariant" : "7.681",
        "epoch_osculation" : "2458000.5",
        "eccentricity" : ".4633548071263234",
        "semi_major_axis" : ".7411786055209553",
        "inclination" : "9.231603450465327",
        "ascending_node_longitude" : "10.67594385419711",
        "orbital_period" : "233.0680480359605",
        "perihelion_distance" : ".3977499357136357",
        "perihelion_argument" : "335.4619261871639",
        "aphelion_distance" : "1.084607275328275",
        "perihelion_time" : "2457893.617041298798",
        "mean_anomaly" : "165.0928364341734",
        "mean_motion" : "1.544613270818036",
        "equinox" : "J2000"
      }
    }, {
      "links" : {
        "self" : "https://api.nasa.gov/neo/rest/v1/neo/3674962?api_key=t0TVs3DtDT2H8Oy2Zy8m2eVrNsAVKAexjcZXUckd"
      },
      "neo_reference_id" : "3674962",
      "name" : "(2014 OC4)",
      "nasa_jpl_url" : "http://ssd.jpl.nasa.gov/sbdb.cgi?sstr=3674962",
      "absolute_magnitude_h" : 25.5,
      "estimated_diameter" : {
        "kilometers" : {
          "estimated_diameter_min" : 0.0211132445,
          "estimated_diameter_max" : 0.0472106499
        },
        "meters" : {
          "estimated_diameter_min" : 21.113244479,
          "estimated_diameter_max" : 47.2106498806
        },
        "miles" : {
          "estimated_diameter_min" : 0.0131191578,
          "estimated_diameter_max" : 0.0293353287
        },
        "feet" : {
          "estimated_diameter_min" : 69.2691770164,
          "estimated_diameter_max" : 154.8905885541
        }
      },
      "is_potentially_hazardous_asteroid" : false,
      "close_approach_data" : [ {
        "close_approach_date" : "2006-02-08",
        "epoch_date_close_approach" : 1139385600000,
        "relative_velocity" : {
          "kilometers_per_second" : "9.089383924",
          "kilometers_per_hour" : "32721.7821265338",
          "miles_per_hour" : "20332.0428996787"
        },
        "miss_distance" : {
          "astronomical" : "0.1336603048",
          "lunar" : "51.9938583374",
          "kilometers" : "19995296",
          "miles" : "12424501"
        },
        "orbiting_body" : "Earth"
      } ],
      "orbital_data" : {
        "orbit_id" : "7",
        "orbit_determination_date" : "2017-04-06 08:39:31",
        "orbit_uncertainty" : "6",
        "minimum_orbit_intersection" : ".0270782",
        "jupiter_tisserand_invariant" : "5.636",
        "epoch_osculation" : "2458000.5",
        "eccentricity" : ".1623082919898547",
        "semi_major_axis" : "1.098391080961189",
        "inclination" : "7.482134159254171",
        "ascending_node_longitude" : "121.2977041900885",
        "orbital_period" : "420.4689433295808",
        "perihelion_distance" : ".9201131006734881",
        "perihelion_argument" : "93.36217810392223",
        "aphelion_distance" : "1.276669061248889",
        "perihelion_time" : "2458043.396842686233",
        "mean_anomaly" : "323.2722853565452",
        "mean_motion" : ".8561868972991359",
        "equinox" : "J2000"
      }
    } ]
  }
}